STARLINK-31703          
1 59861U 24098D   24153.58334491 -.00775605  00000+0 -36109-2 0  9996
2 59861  43.0066   8.1832 0001972 268.2382 176.7192 15.84274868  1919
STARLINK-31584          
1 59862U 24098E   24153.58334491 -.00778890  00000+0 -36231-2 0  9992
2 59862  43.0066   8.1793 0001730 269.2590 177.1810 15.84302671  1758
STARLINK-31950          
1 59863U 24098F   24153.58334491 -.00785941  00000+0 -36535-2 0  9995
2 59863  43.0066   8.1737 0001705 276.3450 172.2836 15.84333347  1919
STARLINK-31931          
1 59864U 24098G   24153.58334491 -.00794439  00000+0 -36909-2 0  9993
2 59864  43.0066   8.1686 0001836 271.9603 178.6178 15.84364259  1914
STARLINK-31938          
1 59865U 24098H   24153.58334491 -.00806363  00000+0 -37456-2 0  9992
2 59865  43.0064   8.1634 0001791 266.6697 186.0520 15.84397117  2565
STARLINK-31941          
1 59866U 24098J   24153.58334491 -.00810369  00000+0 -37608-2 0  9993
2 59866  43.0064   8.1596 0001849 270.6986 183.5582 15.84424886  1915
STARLINK-31952          
1 59867U 24098K   24153.58334491 -.00816002  00000+0 -37846-2 0  9998
2 59867  43.0064   8.1539 0001588 273.4202 183.0130 15.84453618  1914
STARLINK-31921          
1 59868U 24098L   24153.58334491  .00471447  97254-4  11541-2 0  9993
2 59868  43.0059   7.9531 0003676 262.5001 273.7120 15.95312912  1913
STARLINK-31760          
1 59869U 24098M   24153.58334491 -.00832311  00000+0 -38564-2 0  9999
2 59869  43.0065   8.1434 0001667 277.3104 183.2812 15.84512570  1915
STARLINK-31945          
1 59870U 24098N   24153.58334491 -.00816664  00000+0 -37846-2 0  9996
2 59870  43.0063   8.1378 0002429 258.8113 203.9444 15.84463606  1919
STARLINK-31937          
1 59871U 24098P   24153.58334491 -.00849239  00000+0 -39315-2 0  9994
2 59871  43.0063   8.1329 0001674 275.8145 188.8717 15.84570645  1917
STARLINK-31944          
1 59872U 24098Q   24153.58334491 -.00857857  00000+0 -39701-2 0  9999
2 59872  43.0062   8.1277 0001542 271.5936 195.1842 15.84599360  1863
STARLINK-31940          
1 59873U 24098R   24153.58334491 -.00863953  00000+0 -39954-2 0  9994
2 59873  43.0062   8.1232 0001747 276.8712 191.6419 15.84627053  1752
STARLINK-31933          
1 59874U 24098S   24153.58334491 -.00872530  00000+0 -40341-2 0  9998
2 59874  43.0061   8.1176 0001522 274.3774 196.2989 15.84654825  1919
STARLINK-31936          
1 59875U 24098T   24153.58334491 -.00876373  00000+0 -40484-2 0  9996
2 59875  43.0061   8.1141 0001519 274.5643 197.6156 15.84681757  1910
STARLINK-31935          
1 59876U 24098U   24153.58334491 -.00888523  00000+0 -41040-2 0  9996
2 59876  43.0060   8.1083 0001828 263.9402 210.4820 15.84710579  1910
STARLINK-31934          
1 59877U 24098V   24153.58334491 -.00895120  00000+0 -41322-2 0  9991
2 59877  43.0060   8.1038 0001816 273.2464 202.9665 15.84737935  1918
STARLINK-31943          
1 59878U 24098W   24153.58334491 -.00905445  00000+0 -41794-2 0  9997
2 59878  43.0061   8.0980 0001843 270.4854 207.9986 15.84764840  1913
STARLINK-31926          
1 59879U 24098X   24153.58334491 -.00912057  00000+0 -42088-2 0  9992
2 59879  43.0061   8.0925 0001532 275.0818 205.6165 15.84789473  2564
STARLINK-31919          
1 59880U 24098Y   24153.58334491 -.00917565  00000+0 -42314-2 0  9995
2 59880  43.0059   8.0887 0001562 276.8000 205.5070 15.84816179  2563
PREFIRE-1               
1 59881U 24099A   24153.29859398  .00004362  00000+0  25830-3 0  9998
2 59881  97.4987  11.0288 0012856 280.0775  79.9005 15.11864619  1056
EARTHCARE               
1 59908U 24101A   24150.12397311 -.00000091  00000+0  00000+0 0  9997
2 59908  96.9785 278.3904 0004183 133.0935 349.8946 15.55298826    26
TIANQI 25               
1 59909U 24102A   24152.60103100 -.00000134  00000+0  00000+0 0  9993
2 59909  44.9793 345.7370 0012301 315.2754 148.6638 14.14303586   329
TIANQI 26               
1 59910U 24102B   24152.60078593 -.00000134  00000+0  00000+0 0  9992
2 59910  44.9755 345.7376 0012539 316.1748 147.7231 14.14451094   328
TIANQI 27               
1 59911U 24102C   24152.60060896 -.00000134  00000+0  00000+0 0  9990
2 59911  44.9784 345.7362 0012493 318.1036 145.6886 14.14547015   318
TIANQI 28               
1 59912U 24102D   24152.60060863 -.00000134  00000+0  00000+0 0  9995
2 59912  44.9804 345.7354 0013223 317.1404 146.7482 14.14561724   310
PROGRESS-MS 27          
1 59913U 24103A   24153.40808030  .00020538  00000+0  35726-3 0  9998
2 59913  51.6389  33.5112 0005932 259.6561 100.3760 15.50743123456103
PAKSAT-MM1              
1 59915U 24104A   24151.80722123 -.00000248  00000+0  00000+0 0  9991
2 59915  26.7202  68.7443 7296653 179.4408 232.4718  2.28298286    18
ELECTRON R/B            
1 59882U 24099B   24153.59380323  .01270934  22361-5  13375-2 0  9990
2 59882  97.4858  11.9746 0193213 197.3768 162.0830 15.82868494  1144
ELECTRON KICK STAGE R/B 
1 59883U 24099C   24153.57004781  .00017292  00000+0  68054-3 0  9990
2 59883  97.5051  11.4298 0050352 356.1445   3.9397 15.24502780  1095
