OBJECT_NAME,OBJECT_ID,EPOCH,MEAN_MOTION,ECCENTRICITY,INCLINATION,RA_OF_ASC_NODE,ARG_OF_PERICENTER,MEAN_ANOMALY,EPHEMERIS_TYPE,CLASSIFICATION_TYPE,NORAD_CAT_ID,ELEMENT_SET_NO,REV_AT_EPOCH,BSTAR,MEAN_MOTION_DOT,MEAN_MOTION_DDOT
STARLINK-31703,2024-098D,2024-06-01T14:00:01.000224,15.84274868,0.0001972,43.0066,8.1832,268.2382,176.7192,0,U,59861,999,191,-0.0036109,-0.00775605,0
STARLINK-31584,2024-098E,2024-06-01T14:00:01.000224,15.84302671,0.000173,43.0066,8.1793,269.259,177.181,0,U,59862,999,175,-0.0036231,-0.0077889,0
STARLINK-31950,2024-098F,2024-06-01T14:00:01.000224,15.84333347,0.0001705,43.0066,8.1737,276.345,172.2836,0,U,59863,999,191,-0.0036535,-0.00785941,0
STARLINK-31931,2024-098G,2024-06-01T14:00:01.000224,15.84364259,0.0001836,43.0066,8.1686,271.9603,178.6178,0,U,59864,999,191,-0.0036909,-0.00794439,0
STARLINK-31938,2024-098H,2024-06-01T14:00:01.000224,15.84397117,0.0001791,43.0064,8.1634,266.6697,186.052,0,U,59865,999,256,-0.0037456,-0.00806363,0
STARLINK-31941,2024-098J,2024-06-01T14:00:01.000224,15.84424886,0.0001849,43.0064,8.1596,270.6986,183.5582,0,U,59866,999,191,-0.0037608,-0.00810369,0
STARLINK-31952,2024-098K,2024-06-01T14:00:01.000224,15.84453618,0.0001588,43.0064,8.1539,273.4202,183.013,0,U,59867,999,191,-0.0037846,-0.00816002,0
STARLINK-31921,2024-098L,2024-06-01T14:00:01.000224,15.95312912,0.0003676,43.0059,7.9531,262.5001,273.712,0,U,59868,999,191,0.0011541,0.00471447,9.7254e-05
STARLINK-31760,2024-098M,2024-06-01T14:00:01.000224,15.8451257,0.0001667,43.0065,8.1434,277.3104,183.2812,0,U,59869,999,191,-0.0038564,-0.00832311,0
STARLINK-31945,2024-098N,2024-06-01T14:00:01.000224,15.84463606,0.0002429,43.0063,8.1378,258.8113,203.9444,0,U,59870,999,191,-0.0037846,-0.00816664,0
STARLINK-31937,2024-098P,2024-06-01T14:00:01.000224,15.84570645,0.0001674,43.0063,8.1329,275.8145,188.8717,0,U,59871,999,191,-0.0039315,-0.00849239,0
STARLINK-31944,2024-098Q,2024-06-01T14:00:01.000224,15.8459936,0.0001542,43.0062,8.1277,271.5936,195.1842,0,U,59872,999,186,-0.0039701,-0.00857857,0
STARLINK-31940,2024-098R,2024-06-01T14:00:01.000224,15.84627053,0.0001747,43.0062,8.1232,276.8712,191.6419,0,U,59873,999,175,-0.0039954,-0.00863953,0
STARLINK-31933,2024-098S,2024-06-01T14:00:01.000224,15.84654825,0.0001522,43.0061,8.1176,274.3774,196.2989,0,U,59874,999,191,-0.0040341,-0.0087253,0
STARLINK-31936,2024-098T,2024-06-01T14:00:01.000224,15.84681757,0.0001519,43.0061,8.1141,274.5643,197.6156,0,U,59875,999,191,-0.0040484,-0.00876373,0
STARLINK-31935,2024-098U,2024-06-01T14:00:01.000224,15.84710579,0.0001828,43.006,8.1083,263.9402,210.482,0,U,59876,999,191,-0.004104,-0.00888523,0
STARLINK-31934,2024-098V,2024-06-01T14:00:01.000224,15.84737935,0.0001816,43.006,8.1038,273.2464,202.9665,0,U,59877,999,191,-0.0041322,-0.0089512,0
STARLINK-31943,2024-098W,2024-06-01T14:00:01.000224,15.8476484,0.0001843,43.0061,8.098,270.4854,207.9986,0,U,59878,999,191,-0.0041794,-0.00905445,0
STARLINK-31926,2024-098X,2024-06-01T14:00:01.000224,15.84789473,0.0001532,43.0061,8.0925,275.0818,205.6165,0,U,59879,999,256,-0.0042088,-0.00912057,0
STARLINK-31919,2024-098Y,2024-06-01T14:00:01.000224,15.84816179,0.0001562,43.0059,8.0887,276.8,205.507,0,U,59880,999,256,-0.0042314,-0.00917565,0
PREFIRE-1,2024-099A,2024-06-01T07:09:58.519872,15.11864619,0.0012856,97.4987,11.0288,280.0775,79.9005,0,U,59881,999,105,0.0002583,4.362e-05,0
ELECTRON R/B,2024-099B,2024-06-01T14:15:04.599072,15.82868494,0.0193213,97.4858,11.9746,197.3768,162.083,0,U,59882,999,114,0.0013375,0.01270934,2.2361e-06
ELECTRON KICK STAGE R/B,2024-099C,2024-06-01T13:40:52.130784,15.2450278,0.0050352,97.5051,11.4298,356.1445,3.9397,0,U,59883,999,109,0.00068054,0.00017292,0
EARTHCARE,2024-101A,2024-05-29T02:58:31.276704,15.55298826,0.0004183,96.9785,278.3904,133.0935,349.8946,0,U,59908,999,2,0,-9.1e-07,0
TIANQI 25,2024-102A,2024-05-31T14:25:29.078400,14.14303586,0.0012301,44.9793,345.737,315.2754,148.6638,0,U,59909,999,32,0,-1.34e-06,0
TIANQI 26,2024-102B,2024-05-31T14:25:07.904352,14.14451094,0.0012539,44.9755,345.7376,316.1748,147.7231,0,U,59910,999,32,0,-1.34e-06,0
TIANQI 27,2024-102C,2024-05-31T14:24:52.614144,14.14547015,0.0012493,44.9784,345.7362,318.1036,145.6886,0,U,59911,999,31,0,-1.34e-06,0
TIANQI 28,2024-102D,2024-05-31T14:24:52.585632,14.14561724,0.0013223,44.9804,345.7354,317.1404,146.7482,0,U,59912,999,31,0,-1.34e-06,0
PROGRESS-MS 27,2024-103A,2024-06-01T09:47:38.137920,15.50743123,0.0005932,51.6389,33.5112,259.6561,100.376,0,U,59913,999,45610,0.00035726,0.00020538,0
PAKSAT-MM1,2024-104A,2024-05-30T19:22:23.914272,2.28298286,0.7296653,26.7202,68.7443,179.4408,232.4718,0,U,59915,999,1,0,-2.48e-06,0
